{"type": "FeatureCollection", "features": [{"type": "Feature", "properties": {"norad_id": 28054, "name": "DMSP 5D-3 F16 (USA 172)", "group": "weather", "lat": 20.825119008394676, "lon": -158.82070253529753, "alt_km": 846.2980079426352, "timestamp": "2025-12-26T03:50:11.729726+00:00", "meta": {"OBJECT_NAME": "DMSP 5D-3 F16 (USA 172)", "OBJECT_ID": "2003-048A", "EPOCH": "2025-12-25T18:50:02.882112", "MEAN_MOTION": 14.14428702, "ECCENTRICITY": 0.0006243, "INCLINATION": 99.0038, "RA_OF_ASC_NODE": 17.3438, "ARG_OF_PERICENTER": 278.9283, "MEAN_ANOMALY": 130.9922, "EPHEMERIS_TYPE": 0, "CLASSIFICATION_TYPE": "U", "NORAD_CAT_ID": 28054, "ELEMENT_SET_NO": 999, "REV_AT_EPOCH": 14497, "BSTAR": 8.061e-05, "MEAN_MOTION_DOT": 1.09e-06, "MEAN_MOTION_DDOT": 0}, "tle": {"line1": "1 28054U 03048A   25359.78475558  .00000109  00000+0  80610-4 0  9995", "line2": "2 28054  99.0038  17.3438 0006243 278.9283 130.9922 14.14428702144974"}}, "geometry": {"type": "Point", "coordinates": [-158.82070253529753, 20.825119008394676]}}, {"type": "Feature", "properties": {"norad_id": 28912, "name": "METEOSAT-9 (MSG-2)", "group": "weather", "lat": 5.639555790235295, "lon": -162.91194716830245, "alt_km": 36021.35898349034, "timestamp": "2025-12-26T03:50:11.729778+00:00", "meta": {"OBJECT_NAME": "METEOSAT-9 (MSG-2)", "OBJECT_ID": "2005-049B", "EPOCH": "2025-12-24T18:27:10.310976", "MEAN_MOTION": 1.00268275, "ECCENTRICITY": 0.00719695, "INCLINATION": 8.9553, "RA_OF_ASC_NODE": 55.846, "ARG_OF_PERICENTER": 282.2974, "MEAN_ANOMALY": 77.0088, "EPHEMERIS_TYPE": 0, "CLASSIFICATION_TYPE": "U", "NORAD_CAT_ID": 28912, "ELEMENT_SET_NO": 999, "REV_AT_EPOCH": 524, "BSTAR": 0, "MEAN_MOTION_DOT": 1.45e-06, "MEAN_MOTION_DDOT": 0}, "tle": {"line1": "1 28912U 05049B   25358.76886934  .00000145  00000+0  00000+0 0  9992", "line2": "2 28912   8.9553  55.8460 0071969 282.2974  77.0088  1.00268275  5240"}}, "geometry": {"type": "Point", "coordinates": [-162.91194716830245, 5.639555790235295]}}, {"type": "Feature", "properties": {"norad_id": 29522, "name": "DMSP 5D-3 F17 (USA 191)", "group": "weather", "lat": 56.164414483906285, "lon": -161.4648164100363, "alt_km": 833.8000724051863, "timestamp": "2025-12-26T03:50:11.729796+00:00", "meta": {"OBJECT_NAME": "DMSP 5D-3 F17 (USA 191)", "OBJECT_ID": "2006-050A", "EPOCH": "2025-12-25T18:46:19.634016", "MEAN_MOTION": 14.1492498, "ECCENTRICITY": 0.0009966, "INCLINATION": 98.7393, "RA_OF_ASC_NODE": 4.8997, "ARG_OF_PERICENTER": 186.0712, "MEAN_ANOMALY": 174.0342, "EPHEMERIS_TYPE": 0, "CLASSIFICATION_TYPE": "U", "NORAD_CAT_ID": 29522, "ELEMENT_SET_NO": 999, "REV_AT_EPOCH": 98789, "BSTAR": 0.00010554, "MEAN_MOTION_DOT": 1.61e-06, "MEAN_MOTION_DDOT": 0}, "tle": {"line1": "1 29522U 06050A   25359.78217169  .00000161  00000+0  10554-3 0  9991", "line2": "2 29522  98.7393   4.8997 0009966 186.0712 174.0342 14.14924980987897"}}, "geometry": {"type": "Point", "coordinates": [-161.4648164100363, 56.164414483906285]}}, {"type": "Feature", "properties": {"norad_id": 32958, "name": "FENGYUN 3A", "group": "weather", "lat": 57.397320941555215, "lon": -74.39890472028164, "alt_km": 826.246595713922, "timestamp": "2025-12-26T03:50:11.729810+00:00", "meta": {"OBJECT_NAME": "FENGYUN 3A", "OBJECT_ID": "2008-026A", "EPOCH": "2025-12-25T20:47:43.211040", "MEAN_MOTION": 14.19518678, "ECCENTRICITY": 0.0007606, "INCLINATION": 98.6714, "RA_OF_ASC_NODE": 299.1179, "ARG_OF_PERICENTER": 267.7947, "MEAN_ANOMALY": 92.2359, "EPHEMERIS_TYPE": 0, "CLASSIFICATION_TYPE": "U", "NORAD_CAT_ID": 32958, "ELEMENT_SET_NO": 999, "REV_AT_EPOCH": 91081, "BSTAR": 8.5574e-05, "MEAN_MOTION_DOT": 1.37e-06, "MEAN_MOTION_DDOT": 0}, "tle": {"line1": "1 32958U 08026A   25359.86647235  .00000137  00000+0  85574-4 0  9991", "line2": "2 32958  98.6714 299.1179 0007606 267.7947  92.2359 14.19518678910812"}}, "geometry": {"type": "Point", "coordinates": [-74.39890472028164, 57.397320941555215]}}, {"type": "Feature", "properties": {"norad_id": 35491, "name": "GOES 14", "group": "weather", "lat": -0.9543834971090068, "lon": 34.25651646168574, "alt_km": 35836.58056077147, "timestamp": "2025-12-26T03:50:11.729824+00:00", "meta": {"OBJECT_NAME": "GOES 14", "OBJECT_ID": "2009-033A", "EPOCH": "2025-12-25T15:55:40.730304", "MEAN_MOTION": 1.00097035, "ECCENTRICITY": 7.19e-05, "INCLINATION": 1.2354, "RA_OF_ASC_NODE": 85.272, "ARG_OF_PERICENTER": 193.0437, "MEAN_ANOMALY": 297.1266, "EPHEMERIS_TYPE": 0, "CLASSIFICATION_TYPE": "U", "NORAD_CAT_ID": 35491, "ELEMENT_SET_NO": 999, "REV_AT_EPOCH": 485, "BSTAR": 0, "MEAN_MOTION_DOT": 3.9e-07, "MEAN_MOTION_DDOT": 0}, "tle": {"line1": "1 35491U 09033A   25359.66366586  .00000039  00000+0  00000+0 0  9997", "line2": "2 35491   1.2354  85.2720 0000719 193.0437 297.1266  1.00097035  4852"}}, "geometry": {"type": "Point", "coordinates": [34.25651646168574, -0.9543834971090068]}}, {"type": "Feature", "properties": {"norad_id": 35951, "name": "DMSP 5D-3 F18 (USA 210)", "group": "weather", "lat": -16.757856317336092, "lon": -20.805760808748563, "alt_km": 841.8085124011859, "timestamp": "2025-12-26T03:50:11.729836+00:00", "meta": {"OBJECT_NAME": "DMSP 5D-3 F18 (USA 210)", "OBJECT_ID": "2009-057A", "EPOCH": "2025-12-25T19:25:47.379360", "MEAN_MOTION": 14.147778, "ECCENTRICITY": 0.001167, "INCLINATION": 98.885, "RA_OF_ASC_NODE": 336.1459, "ARG_OF_PERICENTER": 28.173, "MEAN_ANOMALY": 332.0072, "EPHEMERIS_TYPE": 0, "CLASSIFICATION_TYPE": "U", "NORAD_CAT_ID": 35951, "ELEMENT_SET_NO": 999, "REV_AT_EPOCH": 83507, "BSTAR": 0.00017182, "MEAN_MOTION_DOT": 2.87e-06, "MEAN_MOTION_DDOT": 0}, "tle": {"line1": "1 35951U 09057A   25359.80957615  .00000287  00000+0  17182-3 0  9997", "line2": "2 35951  98.8850 336.1459 0011670  28.1730 332.0072 14.14777800835079"}}, "geometry": {"type": "Point", "coordinates": [-20.805760808748563, -16.757856317336092]}}, {"type": "Feature", "properties": {"norad_id": 36411, "name": "EWS-G2 (GOES 15)", "group": "weather", "lat": 0.6615392838390184, "lon": -146.24518026662918, "alt_km": 35771.451823600415, "timestamp": "2025-12-26T03:50:11.729849+00:00", "meta": {"OBJECT_NAME": "EWS-G2 (GOES 15)", "OBJECT_ID": "2010-008A", "EPOCH": "2025-12-25T19:19:50.262240", "MEAN_MOTION": 1.00271116, "ECCENTRICITY": 0.0005615, "INCLINATION": 0.844, "RA_OF_ASC_NODE": 86.0667, "ARG_OF_PERICENTER": 179.3829, "MEAN_ANOMALY": 180.4208, "EPHEMERIS_TYPE": 0, "CLASSIFICATION_TYPE": "U", "NORAD_CAT_ID": 36411, "ELEMENT_SET_NO": 999, "REV_AT_EPOCH": 5790, "BSTAR": 0, "MEAN_MOTION_DOT": 6e-07, "MEAN_MOTION_DDOT": 0}, "tle": {"line1": "1 36411U 10008A   25359.80544285  .00000060  00000+0  00000+0 0  9998", "line2": "2 36411   0.8440  86.0667 0005615 179.3829 180.4208  1.00271116 57905"}}, "geometry": {"type": "Point", "coordinates": [-146.24518026662918, 0.6615392838390184]}}, {"type": "Feature", "properties": {"norad_id": 36744, "name": "COMS 1", "group": "weather", "lat": -1.7089681248806523, "lon": -79.43920039590736, "alt_km": 35783.19227155905, "timestamp": "2025-12-26T03:50:11.729862+00:00", "meta": {"OBJECT_NAME": "COMS 1", "OBJECT_ID": "2010-032A", "EPOCH": "2025-12-25T12:42:15.782112", "MEAN_MOTION": 1.00270082, "ECCENTRICITY": 8.88e-05, "INCLINATION": 4.3689, "RA_OF_ASC_NODE": 77.8525, "ARG_OF_PERICENTER": 213.8569, "MEAN_ANOMALY": 121.3153, "EPHEMERIS_TYPE": 0, "CLASSIFICATION_TYPE": "U", "NORAD_CAT_ID": 36744, "ELEMENT_SET_NO": 999, "REV_AT_EPOCH": 4934, "BSTAR": 0, "MEAN_MOTION_DOT": -3.24e-06, "MEAN_MOTION_DDOT": 0}, "tle": {"line1": "1 36744U 10032A   25359.52934933 -.00000324  00000+0  00000+0 0  9990", "line2": "2 36744   4.3689  77.8525 0000888 213.8569 121.3153  1.00270082 49344"}}, "geometry": {"type": "Point", "coordinates": [-79.43920039590736, -1.7089681248806523]}}, {"type": "Feature", "properties": {"norad_id": 37214, "name": "FENGYUN 3B", "group": "weather", "lat": -50.464446728141276, "lon": 51.28531257392365, "alt_km": 834.6095111893328, "timestamp": "2025-12-26T03:50:11.729876+00:00", "meta": {"OBJECT_NAME": "FENGYUN 3B", "OBJECT_ID": "2010-059A", "EPOCH": "2025-12-25T20:06:28.359072", "MEAN_MOTION": 14.14793819, "ECCENTRICITY": 0.0021485, "INCLINATION": 98.9886, "RA_OF_ASC_NODE": 39.9052, "ARG_OF_PERICENTER": 320.0758, "MEAN_ANOMALY": 149.4425, "EPHEMERIS_TYPE": 0, "CLASSIFICATION_TYPE": "U", "NORAD_CAT_ID": 37214, "ELEMENT_SET_NO": 999, "REV_AT_EPOCH": 78291, "BSTAR": 0.0001629, "MEAN_MOTION_DOT": 2.69e-06, "MEAN_MOTION_DDOT": 0}, "tle": {"line1": "1 37214U 10059A   25359.83782823  .00000269  00000+0  16290-3 0  9994", "line2": "2 37214  98.9886  39.9052 0021485 320.0758 149.4425 14.14793819782913"}}, "geometry": {"type": "Point", "coordinates": [51.28531257392365, -50.464446728141276]}}, {"type": "Feature", "properties": {"norad_id": 37849, "name": "SUOMI NPP", "group": "weather", "lat": 16.947972379838674, "lon": -65.31799427529006, "alt_km": 827.0117736926622, "timestamp": "2025-12-26T03:50:11.729889+00:00", "meta": {"OBJECT_NAME": "SUOMI NPP", "OBJECT_ID": "2011-061A", "EPOCH": "2025-12-22T15:10:21.732672", "MEAN_MOTION": 14.19516903, "ECCENTRICITY": 0.00024883, "INCLINATION": 98.7787, "RA_OF_ASC_NODE": 293.8852, "ARG_OF_PERICENTER": 103.0781, "MEAN_ANOMALY": 257.0673, "EPHEMERIS_TYPE": 0, "CLASSIFICATION_TYPE": "U", "NORAD_CAT_ID": 37849, "ELEMENT_SET_NO": 999, "REV_AT_EPOCH": 73339, "BSTAR": 6.3406935e-05, "MEAN_MOTION_DOT": 8.9e-07, "MEAN_MOTION_DDOT": 0}, "tle": {"line1": "1 37849U 11061A   25356.63219598  .00000089  00000+0  63407-4 0  9994", "line2": "2 37849  98.7787 293.8852 0002488 103.0781 257.0673 14.19516903733392"}}, "geometry": {"type": "Point", "coordinates": [-65.31799427529006, 16.947972379838674]}}]}